CZ-4B R/B               
1 28059U 03049C   16230.24414825  .00000014  00000-0  15328-4 0  9990
2 28059  98.6026 103.3745 0051383  93.7522  16.4598 14.52451833679559
CZ-2C R/B               
1 28222U 04012C   16229.48247942  .00000448  00000-0  31857-4 0  9997
2 28222  97.4796 186.6970 0049912 148.9590 326.7919 15.08619337674667
SL-16 R/B               
1 28353U 04021B   16230.56235916 -.00000315  00000-0 -14026-3 0  9994
2 28353  71.0013 355.2081 0007381 290.5058  69.5272 14.14179942629232
CZ-2C R/B               
1 28480U 04046B   16230.20000981 -.00000011  00000-0  11233-4 0  9995
2 28480  98.1877 340.0891 0142860  42.1053  17.5839 14.25603460610927
ARIANE 5 R/B            
1 28499U 04049H   16230.24072468  .00000141  00000-0  24714-4 0  9992
2 28499  98.1065 305.0688 0093868 116.3893 310.0510 14.79721159629045
CZ-2D R/B               
1 28738U 05024B   16229.75807224  .00000702  00000-0  46248-4 0  9991
2 28738  97.5374 265.9621 0011634 338.7465  21.3279 15.10668236609846
SUZAKU (ASTRO-EII)      
1 28773U 05025A   16229.88660303  .00001585  00000-0  78412-4 0  9998
2 28773  31.3827 108.5691 0004776 178.4002 181.6660 15.14946162611150
ALOS (DAICHI)           
1 28931U 06002A   16230.18741285  .00000189  00000-0  46267-4 0  9996
2 28931  97.8802 266.1925 0001367 125.6002 234.5327 14.62225363563030
H-2A R/B                
1 28932U 06002B   16229.77832542  .00000370  00000-0  41226-4 0  9999
2 28932  98.2086 134.4910 0089575 228.2056 167.6392 14.90984196572447
AKARI (ASTRO-F)         
1 28939U 06005A   16230.16299213  .00006286  00000-0  20481-3 0  9997
2 28939  98.2469  32.9855 0113460 158.4092 202.1984 15.26167669566706
RESURS-DK 1             
1 29228U 06021A   16230.50773916  .00000216  00000-0  23846-4 0  9998
2 29228  69.9361 150.5963 0001593  80.2139 279.9201 15.01960541562509
GENESIS 1               
1 29252U 06029A   16230.09143395  .00000952  00000-0  59258-4 0  9992
2 29252  64.5039 198.2488 0023938 223.2824 185.5416 15.16157797555720
CZ-4B R/B               
1 29507U 06046C   16230.07414503  .00000395  00000-0  36443-4 0  9996
2 29507  97.7828 231.3753 0042595 203.7915 156.1340 14.99786827535455
CZ-2C R/B               
1 31114U 07010B   16230.41031275  .00000006  00000-0  22029-4 0  9998
2 31114  98.4096 142.3464 0060252  18.3797 341.9538 14.19212763484434
COSMO-SKYMED 1          
1 31598U 07023A   16230.51206452 -.00000124  00000-0 -90226-5 0  9998
2 31598  97.8757  52.9300 0001506  79.8526 280.2857 14.82162305497463
GENESIS 2               
1 31789U 07028A   16230.50793265  .00000658  00000-0  44441-4 0  9994
2 31789  64.5027 233.7806 0051682 258.6899 100.8412 15.15409475502871
COSMOS 2428             
1 31792U 07029A   16230.49065795 -.00000333  00000-0 -15451-3 0  9997
2 31792  70.9332 329.6428 0009687   2.5413 357.5755 14.12333319471196
SL-16 R/B               
1 31793U 07029B   16229.55471756  .00000168  00000-0  11287-3 0  9998
2 31793  70.9774 309.0390 0002593 267.2510 187.1798 14.14368742471648
KORONAS-FOTON           
1 33504U 09003A   16229.94316451  .00000769  00000-0  39910-4 0  9998
2 33504  82.4442 175.2189 0021440  81.6507 278.7154 15.14405465415427
TIANGONG 1              
1 37820U 11053A   16230.44665103  .00014038  00000-0  14339-3 0  9990
2 37820  42.7613 240.3683 0013445 106.2995  41.7703 15.64781594280170
CZ-3B R/B               
1 38253U 12018D   16230.20203734  .00163636  55432-6  32670-3 0  9997
2 38253  54.9653 127.9600 3387480 256.4237  64.3139  8.83489614 96318
H-2A R/B                
1 38341U 12025E   16230.17679705  .00000317  00000-0  45120-4 0  9990
2 38341  98.4746 283.5889 0057151  56.4374 304.2277 14.83374899229802
CUSAT 2 & FALCON 9 R/B  
1 39271U 13055G   16230.23136901  .00007231  00000-0  19126-3 0  9998
2 39271  80.9724 317.5383 0652556  18.4807 343.8911 14.32541716149031
ALOS-2                  
1 39766U 14029A   16230.44350527 -.00000255  00000-0 -27282-4 0  9998
2 39766  97.9215 326.1358 0001507  82.5288 277.6092 14.79469235120691
ASTRO-H (HITOMI)        
1 41337U 16012A   16229.51939475  .00000426  00000-0  28040-4 0  9991
2 41337  31.0051 249.1379 0012582 272.1515  87.7679 14.98109668 27191
AL-1 (AOLONG 1)         
1 41629U 16042F   16228.88491898  .00455479  71624-5  15325-3 0  9997
2 41629  40.7991  73.9541 0064648 229.0146 330.2190 16.19081741  8256
